[{"OBJECT_NAME":"STARLINK-1567","OBJECT_ID":"2020-055M","EPOCH":"2026-03-10T00:00:02.999808","MEAN_MOTION":15.18253947,"ECCENTRICITY":0.00014476,"INCLINATION":53.0874,"RA_OF_ASC_NODE":124.961,"ARG_OF_PERICENTER":74.8938,"MEAN_ANOMALY":22.5266,"EPHEMERIS_TYPE":0,"CLASSIFICATION_TYPE":"U","NORAD_CAT_ID":46038,"ELEMENT_SET_NO":999,"REV_AT_EPOCH":579,"BSTAR":0.068265395,"MEAN_MOTION_DOT":0.01557947,"MEAN_MOTION_DDOT":0},{"OBJECT_NAME":"SCS-01 A","OBJECT_ID":"2025-100A","EPOCH":"2026-03-09T23:34:52.624992","MEAN_MOTION":15.20882651,"ECCENTRICITY":0.0023898,"INCLINATION":97.374,"RA_OF_ASC_NODE":143.9086,"ARG_OF_PERICENTER":335.0117,"MEAN_ANOMALY":24.996,"EPHEMERIS_TYPE":0,"CLASSIFICATION_TYPE":"U","NORAD_CAT_ID":63982,"ELEMENT_SET_NO":999,"REV_AT_EPOCH":4556,"BSTAR":0.000529729,"MEAN_MOTION_DOT":0.00011735,"MEAN_MOTION_DDOT":0}]
